{"type": "FeatureCollection", "features": [{"type": "Feature", "properties": {"norad_id": 26766, "name": "INTELSAT 10 (IS-10)", "group": "intelsat", "lat": -5.821852881402752, "lon": 18.886142693006853, "alt_km": 36126.129155301634, "timestamp": "2025-12-13T10:41:25.433305+00:00", "meta": {"OBJECT_NAME": "INTELSAT 10 (IS-10)", "OBJECT_ID": "2001-019A", "EPOCH": "2025-12-12T13:59:22.280064", "MEAN_MOTION": 0.99078624, "ECCENTRICITY": 0.00077602, "INCLINATION": 8.6297, "RA_OF_ASC_NODE": 61.1594, "ARG_OF_PERICENTER": 225.253, "MEAN_ANOMALY": 144.4037, "EPHEMERIS_TYPE": 0, "CLASSIFICATION_TYPE": "U", "NORAD_CAT_ID": 26766, "ELEMENT_SET_NO": 999, "REV_AT_EPOCH": 4373, "BSTAR": 0, "MEAN_MOTION_DOT": -2.8e-06, "MEAN_MOTION_DDOT": 0}, "tle": {"line1": "1 26766U 01019A   25346.58289676 -.00000280  00000+0  00000+0 0  9998", "line2": "2 26766   8.6297  61.1594 0007760 225.2530 144.4037  0.99078624 43731"}}, "geometry": {"type": "Point", "coordinates": [18.886142693006853, -5.821852881402752]}}, {"type": "Feature", "properties": {"norad_id": 26900, "name": "INTELSAT 902 (IS-902)", "group": "intelsat", "lat": 4.951845756094973, "lon": -167.29354041437162, "alt_km": 35778.000736809336, "timestamp": "2025-12-13T10:41:25.433330+00:00", "meta": {"OBJECT_NAME": "INTELSAT 902 (IS-902)", "OBJECT_ID": "2001-039A", "EPOCH": "2025-12-11T04:42:42.842016", "MEAN_MOTION": 1.00272526, "ECCENTRICITY": 0.00044264, "INCLINATION": 5.6424, "RA_OF_ASC_NODE": 74.0881, "ARG_OF_PERICENTER": 184.9809, "MEAN_ANOMALY": 201.6699, "EPHEMERIS_TYPE": 0, "CLASSIFICATION_TYPE": "U", "NORAD_CAT_ID": 26900, "ELEMENT_SET_NO": 999, "REV_AT_EPOCH": 8881, "BSTAR": 0, "MEAN_MOTION_DOT": -2.78e-06, "MEAN_MOTION_DDOT": 0}, "tle": {"line1": "1 26900U 01039A   25345.19632919 -.00000278  00000+0  00000+0 0  9995", "line2": "2 26900   5.6424  74.0881 0004426 184.9809 201.6699  1.00272526 88816"}}, "geometry": {"type": "Point", "coordinates": [-167.29354041437162, 4.951845756094973]}}, {"type": "Feature", "properties": {"norad_id": 27380, "name": "INTELSAT 904 (IS-904)", "group": "intelsat", "lat": 4.150222225927898, "lon": -148.60626086187207, "alt_km": 35785.24323063196, "timestamp": "2025-12-13T10:41:25.433347+00:00", "meta": {"OBJECT_NAME": "INTELSAT 904 (IS-904)", "OBJECT_ID": "2002-007A", "EPOCH": "2025-12-12T23:36:13.851360", "MEAN_MOTION": 1.00272685, "ECCENTRICITY": 0.00015329, "INCLINATION": 6.4555, "RA_OF_ASC_NODE": 71.4294, "ARG_OF_PERICENTER": 229.1955, "MEAN_ANOMALY": 103.8506, "EPHEMERIS_TYPE": 0, "CLASSIFICATION_TYPE": "U", "NORAD_CAT_ID": 27380, "ELEMENT_SET_NO": 999, "REV_AT_EPOCH": 4989, "BSTAR": 0, "MEAN_MOTION_DOT": -2.15e-06, "MEAN_MOTION_DDOT": 0}, "tle": {"line1": "1 27380U 02007A   25346.98349365 -.00000215  00000+0  00000+0 0  9993", "line2": "2 27380   6.4555  71.4294 0001532 229.1955 103.8506  1.00272685 49892"}}, "geometry": {"type": "Point", "coordinates": [-148.60626086187207, 4.150222225927898]}}, {"type": "Feature", "properties": {"norad_id": 27426, "name": "DIRECTV 5 (TEMPO 1)", "group": "intelsat", "lat": 3.6137913126657812, "lon": 132.50232677813383, "alt_km": 35796.95174477493, "timestamp": "2025-12-13T10:41:25.433362+00:00", "meta": {"OBJECT_NAME": "DIRECTV 5 (TEMPO 1)", "OBJECT_ID": "2002-023A", "EPOCH": "2025-12-12T21:30:45.107424", "MEAN_MOTION": 1.00272109, "ECCENTRICITY": 0.00034627, "INCLINATION": 4.4028, "RA_OF_ASC_NODE": 77.6516, "ARG_OF_PERICENTER": 196.387, "MEAN_ANOMALY": 20.3613, "EPHEMERIS_TYPE": 0, "CLASSIFICATION_TYPE": "U", "NORAD_CAT_ID": 27426, "ELEMENT_SET_NO": 999, "REV_AT_EPOCH": 8625, "BSTAR": 0, "MEAN_MOTION_DOT": -4.6e-07, "MEAN_MOTION_DDOT": 0}, "tle": {"line1": "1 27426U 02023A   25346.89635541 -.00000046  00000+0  00000+0 0  9998", "line2": "2 27426   4.4028  77.6516 0003462 196.3870  20.3613  1.00272109 86250"}}, "geometry": {"type": "Point", "coordinates": [132.50232677813383, 3.6137913126657812]}}, {"type": "Feature", "properties": {"norad_id": 27438, "name": "INTELSAT 905 (IS-905)", "group": "intelsat", "lat": 3.480946902913372, "lon": 105.37163418417458, "alt_km": 35796.12668330889, "timestamp": "2025-12-13T10:41:25.433375+00:00", "meta": {"OBJECT_NAME": "INTELSAT 905 (IS-905)", "OBJECT_ID": "2002-027A", "EPOCH": "2025-12-12T10:15:53.786304", "MEAN_MOTION": 1.00273335, "ECCENTRICITY": 0.00027053, "INCLINATION": 6.2853, "RA_OF_ASC_NODE": 72.0601, "ARG_OF_PERICENTER": 197.9433, "MEAN_ANOMALY": 188.1472, "EPHEMERIS_TYPE": 0, "CLASSIFICATION_TYPE": "U", "NORAD_CAT_ID": 27438, "ELEMENT_SET_NO": 999, "REV_AT_EPOCH": 4949, "BSTAR": 0, "MEAN_MOTION_DOT": 1.03e-06, "MEAN_MOTION_DDOT": 0}, "tle": {"line1": "1 27438U 02027A   25346.42770586  .00000103  00000+0  00000+0 0  9996", "line2": "2 27438   6.2853  72.0601 0002705 197.9433 188.1472  1.00273335 49497"}}, "geometry": {"type": "Point", "coordinates": [105.37163418417458, 3.480946902913372]}}, {"type": "Feature", "properties": {"norad_id": 27445, "name": "GALAXY 3C (G-3C)", "group": "intelsat", "lat": 3.018715056457932, "lon": 147.82769481584572, "alt_km": 35781.4327783591, "timestamp": "2025-12-13T10:41:25.433387+00:00", "meta": {"OBJECT_NAME": "GALAXY 3C (G-3C)", "OBJECT_ID": "2002-030A", "EPOCH": "2025-12-12T23:18:08.085024", "MEAN_MOTION": 1.00271516, "ECCENTRICITY": 0.00011084, "INCLINATION": 3.265, "RA_OF_ASC_NODE": 80.5046, "ARG_OF_PERICENTER": 88.0134, "MEAN_ANOMALY": 168.0613, "EPHEMERIS_TYPE": 0, "CLASSIFICATION_TYPE": "U", "NORAD_CAT_ID": 27445, "ELEMENT_SET_NO": 999, "REV_AT_EPOCH": 4462, "BSTAR": 0, "MEAN_MOTION_DOT": -1.4e-06, "MEAN_MOTION_DDOT": 0}, "tle": {"line1": "1 27445U 02030A   25346.97092691 -.00000140  00000+0  00000+0 0  9994", "line2": "2 27445   3.2650  80.5046 0001108  88.0134 168.0613  1.00271516 44621"}}, "geometry": {"type": "Point", "coordinates": [147.82769481584572, 3.018715056457932]}}, {"type": "Feature", "properties": {"norad_id": 27513, "name": "INTELSAT 906 (IS-906)", "group": "intelsat", "lat": -4.1922159774018155, "lon": -53.2152036093014, "alt_km": 35766.28705188379, "timestamp": "2025-12-13T10:41:25.433399+00:00", "meta": {"OBJECT_NAME": "INTELSAT 906 (IS-906)", "OBJECT_ID": "2002-041A", "EPOCH": "2025-12-12T20:28:51.278592", "MEAN_MOTION": 1.00271514, "ECCENTRICITY": 0.00061881, "INCLINATION": 5.3292, "RA_OF_ASC_NODE": 75.2298, "ARG_OF_PERICENTER": 192.8592, "MEAN_ANOMALY": 185.0466, "EPHEMERIS_TYPE": 0, "CLASSIFICATION_TYPE": "U", "NORAD_CAT_ID": 27513, "ELEMENT_SET_NO": 999, "REV_AT_EPOCH": 8516, "BSTAR": 0, "MEAN_MOTION_DOT": 2.4e-07, "MEAN_MOTION_DDOT": 0}, "tle": {"line1": "1 27513U 02041A   25346.85337128  .00000024  00000+0  00000+0 0  9996", "line2": "2 27513   5.3292  75.2298 0006188 192.8592 185.0466  1.00271514 85164"}}, "geometry": {"type": "Point", "coordinates": [-53.2152036093014, -4.1922159774018155]}}, {"type": "Feature", "properties": {"norad_id": 27954, "name": "GALAXY 13 (HORIZONS-1)", "group": "intelsat", "lat": 0.11983139631877351, "lon": 92.71354481515765, "alt_km": 35794.34398339144, "timestamp": "2025-12-13T10:41:25.433436+00:00", "meta": {"OBJECT_NAME": "GALAXY 13 (HORIZONS-1)", "OBJECT_ID": "2003-044A", "EPOCH": "2025-12-12T23:02:24.591840", "MEAN_MOTION": 1.00271639, "ECCENTRICITY": 0.00020554, "INCLINATION": 0.9362, "RA_OF_ASC_NODE": 86.4662, "ARG_OF_PERICENTER": 168.6306, "MEAN_ANOMALY": 22.3996, "EPHEMERIS_TYPE": 0, "CLASSIFICATION_TYPE": "U", "NORAD_CAT_ID": 27954, "ELEMENT_SET_NO": 999, "REV_AT_EPOCH": 4470, "BSTAR": 0, "MEAN_MOTION_DOT": 1.45e-06, "MEAN_MOTION_DDOT": 0}, "tle": {"line1": "1 27954U 03044A   25346.96000685  .00000145  00000+0  00000+0 0  9990", "line2": "2 27954   0.9362  86.4662 0002055 168.6306  22.3996  1.00271639 44708"}}, "geometry": {"type": "Point", "coordinates": [92.71354481515765, 0.11983139631877351]}}, {"type": "Feature", "properties": {"norad_id": 28358, "name": "INTELSAT 10-02", "group": "intelsat", "lat": -0.014613474240670905, "lon": -118.24843295615558, "alt_km": 35783.41371755918, "timestamp": "2025-12-13T10:41:25.433465+00:00", "meta": {"OBJECT_NAME": "INTELSAT 10-02", "OBJECT_ID": "2004-022A", "EPOCH": "2025-12-12T22:02:12.093792", "MEAN_MOTION": 1.00271112, "ECCENTRICITY": 0.0001067, "INCLINATION": 0.0226, "RA_OF_ASC_NODE": 63.6504, "ARG_OF_PERICENTER": 229.2505, "MEAN_ANOMALY": 118.5436, "EPHEMERIS_TYPE": 0, "CLASSIFICATION_TYPE": "U", "NORAD_CAT_ID": 28358, "ELEMENT_SET_NO": 999, "REV_AT_EPOCH": 7868, "BSTAR": 0, "MEAN_MOTION_DOT": 2e-08, "MEAN_MOTION_DDOT": 0}, "tle": {"line1": "1 28358U 04022A   25346.91819553  .00000002  00000+0  00000+0 0  9995", "line2": "2 28358   0.0226  63.6504 0001067 229.2505 118.5436  1.00271112 78683"}}, "geometry": {"type": "Point", "coordinates": [-118.24843295615558, -0.014613474240670905]}}, {"type": "Feature", "properties": {"norad_id": 28626, "name": "XM-3 (RHYTHM)", "group": "intelsat", "lat": -0.1683763496150767, "lon": -6.301839974648197, "alt_km": 36153.56507335005, "timestamp": "2025-12-13T10:41:25.433481+00:00", "meta": {"OBJECT_NAME": "XM-3 (RHYTHM)", "OBJECT_ID": "2005-008A", "EPOCH": "2025-12-12T20:52:06.198816", "MEAN_MOTION": 0.98952395, "ECCENTRICITY": 0.00015604, "INCLINATION": 0.1751, "RA_OF_ASC_NODE": 81.5582, "ARG_OF_PERICENTER": 271.1485, "MEAN_ANOMALY": 155.8368, "EPHEMERIS_TYPE": 0, "CLASSIFICATION_TYPE": "U", "NORAD_CAT_ID": 28626, "ELEMENT_SET_NO": 999, "REV_AT_EPOCH": 4075, "BSTAR": 0, "MEAN_MOTION_DOT": -1.45e-06, "MEAN_MOTION_DDOT": 0}, "tle": {"line1": "1 28626U 05008A   25346.86951619 -.00000145  00000+0  00000+0 0  9991", "line2": "2 28626   0.1751  81.5582 0001560 271.1485 155.8368  0.98952395 40751"}}, "geometry": {"type": "Point", "coordinates": [-6.301839974648197, -0.1683763496150767]}}]}